{
  "generated_at": "2026-06-20T08:56:02+00:00",
  "source": "celestrak.org",
  "satellite_count": 9,
  "satellites": [
    {
      "id": "terra",
      "name": "TERRA",
      "platform": "EOS",
      "sensor": "MODIS",
      "swath_km": 2330,
      "color": "#39d0d8",
      "norad": 25994,
      "tle1": "1 25994U 99068A   26170.83479081  .00000280  00000+0  65954-4 0  9999",
      "tle2": "2 25994  97.9455 220.2761 0001794 180.7116 290.3112 14.61104873409999"
    },
    {
      "id": "aqua",
      "name": "AQUA",
      "platform": "EOS",
      "sensor": "MODIS",
      "swath_km": 2330,
      "color": "#2bb673",
      "norad": 27424,
      "tle1": "1 27424U 02022A   26170.85395465  .00000565  00000+0  12222-3 0  9993",
      "tle2": "2 27424  98.4277 140.1900 0001000  54.7538 335.1578 14.62161415283664"
    },
    {
      "id": "snpp",
      "name": "SUOMI NPP",
      "platform": "JPSS",
      "sensor": "VIIRS",
      "swath_km": 3000,
      "color": "#ff8c42",
      "norad": 37849,
      "tle1": "1 37849U 11061A   26170.87804144  .00000060  00000+0  49484-4 0  9990",
      "tle2": "2 37849  98.7953 111.7357 0001382   0.4727 359.6450 14.19517888758827"
    },
    {
      "id": "noaa20",
      "name": "NOAA 20",
      "platform": "JPSS",
      "sensor": "VIIRS",
      "swath_km": 3000,
      "color": "#ffaa00",
      "norad": 43013,
      "tle1": "1 43013U 17073A   26170.82078906  .00000038  00000+0  38813-4 0  9992",
      "tle2": "2 43013  98.7770 110.2600 0000361 115.3540 244.7674 14.19512169444847"
    },
    {
      "id": "noaa21",
      "name": "NOAA 21",
      "platform": "JPSS",
      "sensor": "VIIRS",
      "swath_km": 3000,
      "color": "#ff5a3a",
      "norad": 54234,
      "tle1": "1 54234U 22150A   26170.78311067  .00000056  00000+0  47330-4 0  9998",
      "tle2": "2 54234  98.7058 109.5288 0001810 148.3868 211.7417 14.19565901186917"
    },
    {
      "id": "sentinel2a",
      "name": "SENTINEL-2A",
      "platform": "Copernicus",
      "sensor": "MSI",
      "swath_km": 290,
      "color": "#b388ff",
      "norad": 40697,
      "tle1": "1 40697U 15028A   26170.80210684  .00000108  00000+0  57960-4 0  9996",
      "tle2": "2 40697  98.5681 245.6167 0001103  91.7226 268.4084 14.30816128574101"
    },
    {
      "id": "sentinel2b",
      "name": "SENTINEL-2B",
      "platform": "Copernicus",
      "sensor": "MSI",
      "swath_km": 290,
      "color": "#9d6dff",
      "norad": 42063,
      "tle1": "1 42063U 17013A   26170.86483477 -.00000016  00000+0  10695-4 0  9992",
      "tle2": "2 42063  98.5689 245.6017 0001177  86.7392 273.3925 14.30817452485023"
    },
    {
      "id": "sentinel3a",
      "name": "SENTINEL-3A",
      "platform": "Copernicus",
      "sensor": "OLCI",
      "swath_km": 1270,
      "color": "#7a4fff",
      "norad": 41335,
      "tle1": "1 41335U 16011A   26170.81136042  .00000027  00000+0  29289-4 0  9998",
      "tle2": "2 41335  98.6249 238.1574 0001415  99.4675 260.6666 14.26733276538433"
    },
    {
      "id": "sentinel3b",
      "name": "SENTINEL-3B",
      "platform": "Copernicus",
      "sensor": "OLCI",
      "swath_km": 1270,
      "color": "#5e3bff",
      "norad": 43437,
      "tle1": "1 43437U 18039A   26170.71438664  .00000070  00000+0  47152-4 0  9996",
      "tle2": "2 43437  98.6248 238.2105 0000727  93.2491 266.8773 14.26735355424487"
    }
  ]
}